start=new Date('2023-02-16T00:00:00.000Z').valueOf();
sats=[{"OBJECT_ID":"2020-001Z","MEAN_MOTION_DDOT":"0.0000000000000","ELEMENT_SET_NO":"999","LAUNCH_DATE":"2020-01-07","PERIAPSIS":"546.397","INCLINATION":"53.0507","RCS_SIZE":"LARGE","APOAPSIS":"548.006","COUNTRY_CODE":"US","DECAY_DATE":null,"MEAN_ELEMENT_THEORY":"SGP4","PERIOD":"95.592","EPOCH":"2023-02-15T17:12:44.913600","OBJECT_NAME":"STARLINK-1079","CLASSIFICATION_TYPE":"U","TLE_LINE2":"2 44937  53.0507 305.3964 0001162 101.3613 258.7506 15.06404016171621","REF_FRAME":"TEME","RA_OF_ASC_NODE":"305.3964","MEAN_MOTION":"15.06404016","SITE":"AFETR","CENTER_NAME":"EARTH","SEMIMAJOR_AXIS":"6925.336","ARG_OF_PERICENTER":"101.3613","TLE_LINE1":"1 44937U 20001Z   23046.71718650  .00004707  00000-0  33465-3 0  9992","MEAN_MOTION_DOT":"0.00004707","ECCENTRICITY":"0.00011620","GP_ID":"225548998","REV_AT_EPOCH":"17162","OBJECT_TYPE":"PAYLOAD","FILE":"3795153","BSTAR":"0.00033465000000","EPHEMERIS_TYPE":"0","NORAD_CAT_ID":"44937","MEAN_ANOMALY":"258.7506","TIME_SYSTEM":"UTC"},{"ECCENTRICITY":"0.00014120","GP_ID":"225517534","MEAN_MOTION_DOT":"0.00004330","EPHEMERIS_TYPE":"0","NORAD_CAT_ID":"44938","MEAN_ANOMALY":"237.5488","TIME_SYSTEM":"UTC","BSTAR":"0.00030927000000","FILE":"3794594","OBJECT_TYPE":"PAYLOAD","REV_AT_EPOCH":"17165","MEAN_MOTION":"15.06411938","RA_OF_ASC_NODE":"304.3514","REF_FRAME":"TEME","TLE_LINE1":"1 44938U 20001AA  23046.94939318  .00004330  00000-0  30927-3 0  9996","ARG_OF_PERICENTER":"122.5638","SEMIMAJOR_AXIS":"6925.312","CENTER_NAME":"EARTH","SITE":"AFETR","MEAN_ELEMENT_THEORY":"SGP4","DECAY_DATE":null,"COUNTRY_CODE":"US","TLE_LINE2":"2 44938  53.0556 304.3514 0001412 122.5638 237.5488 15.06411938171654","CLASSIFICATION_TYPE":"U","OBJECT_NAME":"STARLINK-1082","EPOCH":"2023-02-15T22:47:07.570752","PERIOD":"95.591","LAUNCH_DATE":"2020-01-07","ELEMENT_SET_NO":"999","MEAN_MOTION_DDOT":"0.0000000000000","OBJECT_ID":"2020-001AA","APOAPSIS":"548.155","RCS_SIZE":"LARGE","INCLINATION":"53.0556","PERIAPSIS":"546.199"},{"MEAN_ELEMENT_THEORY":"SGP4","COUNTRY_CODE":"US","DECAY_DATE":null,"OBJECT_NAME":"STARLINK-1083","CLASSIFICATION_TYPE":"U","TLE_LINE2":"2 44939  53.0523 304.6211 0001968  83.0889 277.0324 15.06389113171647","PERIOD":"95.593","EPOCH":"2023-02-15T21:22:14.037600","ELEMENT_SET_NO":"999","LAUNCH_DATE":"2020-01-07","OBJECT_ID":"2020-001AB","MEAN_MOTION_DDOT":"0.0000000000000","APOAPSIS":"548.610","RCS_SIZE":"LARGE","PERIAPSIS":"545.884","INCLINATION":"53.0523","MEAN_MOTION_DOT":"0.00001751","GP_ID":"225548005","ECCENTRICITY":"0.00019680","BSTAR":"0.00013647000000","NORAD_CAT_ID":"44939","TIME_SYSTEM":"UTC","EPHEMERIS_TYPE":"0","MEAN_ANOMALY":"277.0324","REV_AT_EPOCH":"17164","OBJECT_TYPE":"PAYLOAD","FILE":"3795153","MEAN_MOTION":"15.06389113","REF_FRAME":"TEME","RA_OF_ASC_NODE":"304.6211","SEMIMAJOR_AXIS":"6925.382","ARG_OF_PERICENTER":"83.0889","TLE_LINE1":"1 44939U 20001AB  23046.89044025  .00001751  00000-0  13647-3 0  9997","SITE":"AFETR","CENTER_NAME":"EARTH"},{"BSTAR":"0.00137840000000","EPHEMERIS_TYPE":"0","NORAD_CAT_ID":"44940","MEAN_ANOMALY":"260.8255","TIME_SYSTEM":"UTC","REV_AT_EPOCH":"17165","FILE":"3794629","OBJECT_TYPE":"PAYLOAD","MEAN_MOTION_DOT":"0.00020322","GP_ID":"225517997","ECCENTRICITY":"0.00012050","ARG_OF_PERICENTER":"99.2870","SEMIMAJOR_AXIS":"6925.278","TLE_LINE1":"1 44940U 20001AC  23046.96782485  .00020322  00000-0  13784-2 0  9992","SITE":"AFETR","CENTER_NAME":"EARTH","MEAN_MOTION":"15.06423014","REF_FRAME":"TEME","RA_OF_ASC_NODE":"304.2697","TLE_LINE2":"2 44940  53.0529 304.2697 0001205  99.2870 260.8255 15.06423014171655","CLASSIFICATION_TYPE":"U","OBJECT_NAME":"STARLINK-1091","EPOCH":"2023-02-15T23:13:40.067040","PERIOD":"95.591","MEAN_ELEMENT_THEORY":"SGP4","COUNTRY_CODE":"US","DECAY_DATE":null,"APOAPSIS":"547.978","RCS_SIZE":"LARGE","PERIAPSIS":"546.309","INCLINATION":"53.0529","ELEMENT_SET_NO":"999","LAUNCH_DATE":"2020-01-07","OBJECT_ID":"2020-001AC","MEAN_MOTION_DDOT":"0.0000000000000"},{"CLASSIFICATION_TYPE":"U","TLE_LINE2":"2 44941  53.0520 304.4696 0001322 102.4343 257.6794 15.06408198171658","OBJECT_NAME":"STARLINK-1094","EPOCH":"2023-02-15T22:09:58.811040","PERIOD":"95.592","MEAN_ELEMENT_THEORY":"SGP4","DECAY_DATE":null,"COUNTRY_CODE":"US","APOAPSIS":"548.104","RCS_SIZE":"LARGE","INCLINATION":"53.0520","PERIAPSIS":"546.273","LAUNCH_DATE":"2020-01-07","ELEMENT_SET_NO":"999","MEAN_MOTION_DDOT":"0.0000000000000","OBJECT_ID":"2020-001AD","NORAD_CAT_ID":"44941","TIME_SYSTEM":"UTC","EPHEMERIS_TYPE":"0","MEAN_ANOMALY":"257.6794","BSTAR":"0.00037281000000","FILE":"3795153","OBJECT_TYPE":"PAYLOAD","REV_AT_EPOCH":"17165","GP_ID":"225549492","ECCENTRICITY":"0.00013220","MEAN_MOTION_DOT":"0.00005277","TLE_LINE1":"1 44941U 20001AD  23046.92359735  .00005277  00000-0  37281-3 0  9998","ARG_OF_PERICENTER":"102.4343","SEMIMAJOR_AXIS":"6925.323","CENTER_NAME":"EARTH","SITE":"AFETR","MEAN_MOTION":"15.06408198","RA_OF_ASC_NODE":"304.4696","REF_FRAME":"TEME"},{"LAUNCH_DATE":"2020-01-07","ELEMENT_SET_NO":"999","MEAN_MOTION_DDOT":"0.0000000000000","OBJECT_ID":"2020-001AE","RCS_SIZE":"LARGE","APOAPSIS":"516.632","INCLINATION":"53.0544","PERIAPSIS":"513.264","MEAN_ELEMENT_THEORY":"SGP4","DECAY_DATE":null,"COUNTRY_CODE":"US","OBJECT_NAME":"STARLINK-1096","TLE_LINE2":"2 44942  53.0544 296.4595 0002443 178.0952 182.0051 15.16989147171772","CLASSIFICATION_TYPE":"U","PERIOD":"94.925","EPOCH":"2023-02-15T22:51:54.748800","MEAN_MOTION":"15.16989147","RA_OF_ASC_NODE":"296.4595","REF_FRAME":"TEME","TLE_LINE1":"1 44942U 20001AE  23046.95271700  .00030954  00000-0  15571-2 0  9994","SEMIMAJOR_AXIS":"6893.083","ARG_OF_PERICENTER":"178.0952","CENTER_NAME":"EARTH","SITE":"AFETR","ECCENTRICITY":"0.00024430","GP_ID":"225518488","MEAN_MOTION_DOT":"0.00030954","NORAD_CAT_ID":"44942","MEAN_ANOMALY":"182.0051","EPHEMERIS_TYPE":"0","TIME_SYSTEM":"UTC","BSTAR":"0.00155710000000","OBJECT_TYPE":"PAYLOAD","FILE":"3794628","REV_AT_EPOCH":"17177"},{"RA_OF_ASC_NODE":"304.6361","REF_FRAME":"TEME","MEAN_MOTION":"15.06406598","CENTER_NAME":"EARTH","SITE":"AFETR","TLE_LINE1":"1 44943U 20001AF  23046.88673376  .00002666  00000-0  19780-3 0  9998","ARG_OF_PERICENTER":"102.0081","SEMIMAJOR_AXIS":"6925.328","GP_ID":"225548499","ECCENTRICITY":"0.00014900","MEAN_MOTION_DOT":"0.00002666","FILE":"3795153","OBJECT_TYPE":"PAYLOAD","REV_AT_EPOCH":"17164","NORAD_CAT_ID":"44943","EPHEMERIS_TYPE":"0","MEAN_ANOMALY":"258.1075","TIME_SYSTEM":"UTC","BSTAR":"0.00019780000000","MEAN_MOTION_DDOT":"0.0000000000000","OBJECT_ID":"2020-001AF","LAUNCH_DATE":"2020-01-07","ELEMENT_SET_NO":"999","INCLINATION":"53.0520","PERIAPSIS":"546.161","APOAPSIS":"548.225","RCS_SIZE":"LARGE","DECAY_DATE":null,"COUNTRY_CODE":"US","MEAN_ELEMENT_THEORY":"SGP4","EPOCH":"2023-02-15T21:16:53.796864","PERIOD":"95.592","CLASSIFICATION_TYPE":"U","TLE_LINE2":"2 44943  53.0520 304.6361 0001490 102.0081 258.1075 15.06406598171641","OBJECT_NAME":"STARLINK-1100"},{"LAUNCH_DATE":"2020-01-07","ELEMENT_SET_NO":"999","MEAN_MOTION_DDOT":"0.0000000000000","OBJECT_ID":"2020-001AG","APOAPSIS":"548.023","RCS_SIZE":"LARGE","INCLINATION":"53.0525","PERIAPSIS":"546.335","MEAN_ELEMENT_THEORY":"SGP4","DECAY_DATE":null,"COUNTRY_CODE":"US","TLE_LINE2":"2 44944  53.0525 304.4209 0001219 104.5045 255.6080 15.06411211171659","CLASSIFICATION_TYPE":"U","OBJECT_NAME":"STARLINK-1108","EPOCH":"2023-02-15T22:25:53.658912","PERIOD":"95.591","MEAN_MOTION":"15.06411211","RA_OF_ASC_NODE":"304.4209","REF_FRAME":"TEME","TLE_LINE1":"1 44944U 20001AG  23046.93464883  .00003410  00000-0  24761-3 0  9999","ARG_OF_PERICENTER":"104.5045","SEMIMAJOR_AXIS":"6925.314","CENTER_NAME":"EARTH","SITE":"AFETR","ECCENTRICITY":"0.00012190","GP_ID":"225518896","MEAN_MOTION_DOT":"0.00003410","NORAD_CAT_ID":"44944","EPHEMERIS_TYPE":"0","TIME_SYSTEM":"UTC","MEAN_ANOMALY":"255.6080","BSTAR":"0.00024761000000","FILE":"3794663","OBJECT_TYPE":"PAYLOAD","REV_AT_EPOCH":"17165"},{"ELEMENT_SET_NO":"999","LAUNCH_DATE":"2020-01-07","OBJECT_ID":"2020-001AH","MEAN_MOTION_DDOT":"0.0000000000000","RCS_SIZE":"LARGE","APOAPSIS":"547.893","PERIAPSIS":"546.411","INCLINATION":"53.0516","MEAN_ELEMENT_THEORY":"SGP4","COUNTRY_CODE":"US","DECAY_DATE":null,"OBJECT_NAME":"STARLINK-1109","TLE_LINE2":"2 44945  53.0516 304.2906 0001070 105.3190 254.7917 15.06419976171652","CLASSIFICATION_TYPE":"U","PERIOD":"95.591","EPOCH":"2023-02-15T23:08:21.228576","MEAN_MOTION":"15.06419976","REF_FRAME":"TEME","RA_OF_ASC_NODE":"304.2906","SEMIMAJOR_AXIS":"6925.287","ARG_OF_PERICENTER":"105.3190","TLE_LINE1":"1 44945U 20001AH  23046.96413459  .00001881  00000-0  14508-3 0  9994","SITE":"AFETR","CENTER_NAME":"EARTH","MEAN_MOTION_DOT":"0.00001881","GP_ID":"225518522","ECCENTRICITY":"0.00010700","BSTAR":"0.00014508000000","NORAD_CAT_ID":"44945","EPHEMERIS_TYPE":"0","MEAN_ANOMALY":"254.7917","TIME_SYSTEM":"UTC","REV_AT_EPOCH":"17165","OBJECT_TYPE":"PAYLOAD","FILE":"3794630"},{"APOAPSIS":"487.479","RCS_SIZE":"LARGE","PERIAPSIS":"486.522","INCLINATION":"53.0119","ELEMENT_SET_NO":"999","LAUNCH_DATE":"2020-01-07","OBJECT_ID":"2020-001AJ","MEAN_MOTION_DDOT":"0.0000000000000","CLASSIFICATION_TYPE":"U","TLE_LINE2":"2 44946  53.0119 269.7582 0000697  51.5999 308.5061 15.26262024172099","OBJECT_NAME":"STARLINK-1110","EPOCH":"2023-02-15T21:50:08.530080","PERIOD":"94.348","MEAN_ELEMENT_THEORY":"SGP4","COUNTRY_CODE":"US","DECAY_DATE":null,"ARG_OF_PERICENTER":"51.5999","SEMIMAJOR_AXIS":"6865.135","TLE_LINE1":"1 44946U 20001AJ  23046.90982095  .00018513  00000-0  71630-3 0  9995","SITE":"AFETR","CENTER_NAME":"EARTH","MEAN_MOTION":"15.26262024","REF_FRAME":"TEME","RA_OF_ASC_NODE":"269.7582","BSTAR":"0.00071630000000","EPHEMERIS_TYPE":"0","NORAD_CAT_ID":"44946","MEAN_ANOMALY":"308.5061","TIME_SYSTEM":"UTC","REV_AT_EPOCH":"17209","FILE":"3795153","OBJECT_TYPE":"PAYLOAD","MEAN_MOTION_DOT":"0.00018513","GP_ID":"225549241","ECCENTRICITY":"0.00006970"}];
